OBJECT_NAME,OBJECT_ID,EPOCH,MEAN_MOTION,ECCENTRICITY,INCLINATION,RA_OF_ASC_NODE,ARG_OF_PERICENTER,MEAN_ANOMALY,EPHEMERIS_TYPE,CLASSIFICATION_TYPE,NORAD_CAT_ID,ELEMENT_SET_NO,REV_AT_EPOCH,BSTAR,MEAN_MOTION_DOT,MEAN_MOTION_DDOT
IRIDIUM 156,2018-061H,2026-07-12T15:39:54.465408,14.34217491,.0002103,86.3937,46.0769,92.0847,268.0590,0,U,43576,999,41702,.1325E-4,.57E-6,0
IRIDIUM 164,2018-061J,2026-07-12T16:52:58.647648,14.34217636,.0002309,86.3939,46.0967,89.1970,270.9490,0,U,43577,999,41707,.46177E-4,.149E-5,0
IRIDIUM 159,2018-061K,2026-07-12T16:07:18.410304,14.34217116,.0002038,86.3935,46.0462,85.0768,275.0660,0,U,43578,999,41703,-.34902E-5,.1E-6,0
IRIDIUM 180,2019-002A,2026-07-12T19:27:31.055040,14.34217743,.000224,86.3991,342.8855,90.8767,269.2685,0,U,43922,999,39266,.24538E-4,.88E-6,0
IRIDIUM 176,2019-002B,2026-07-12T20:25:16.554720,14.72247366,.0002339,86.6108,342.8085,89.7498,270.3987,0,U,43923,999,40302,.6366E-4,.426E-5,0
IRIDIUM 168,2019-002C,2026-07-10T08:42:02.613600,14.34217872,.00022436,86.3988,343.9865,90.7210,269.4243,0,U,43924,999,39229,.8973003E-5,.45E-6,0
IRIDIUM 173,2019-002D,2026-07-12T19:00:06.888096,14.34216822,.0002052,86.3988,342.8597,91.7107,268.4324,0,U,43925,999,39262,-.38996E-4,-.89E-6,0
IRIDIUM 169,2019-002E,2026-07-12T13:41:32.075232,14.38613001,.0001802,86.4219,14.5777,100.9496,259.1905,0,U,43926,999,39387,.9176E-6,.23E-6,0
IRIDIUM 172,2019-002F,2026-07-12T20:31:26.975712,14.34217736,.000217,86.3985,342.8407,90.3563,269.7881,0,U,43927,999,39264,.19415E-4,.74E-6,0
IRIDIUM 175,2019-002G,2026-07-12T18:48:23.135040,14.43626490,.0005203,86.4512,279.8222,120.0557,240.1161,0,U,43928,999,40267,.47062E-4,.18E-5,0
IRIDIUM 171,2019-002H,2026-07-12T20:04:02.947872,14.34217597,.0002212,86.3996,343.1576,95.2398,264.9050,0,U,43929,999,39263,.11922E-4,.53E-6,0
IRIDIUM 170,2019-002J,2026-07-12T20:34:09.721344,14.72247932,.0002291,86.6108,342.8082,86.1226,274.0253,0,U,43930,999,40303,.64066E-4,.429E-5,0
IRIDIUM 167,2019-002K,2026-07-12T11:32:34.938816,14.34217698,.000225,86.3988,343.0196,99.1004,261.0446,0,U,43931,999,39258,.14068982E-4,.59E-6,0
IRIDIUM 181,2023-068S,2026-07-12T16:32:09.485088,14.43311370,.000241,86.4476,46.1263,83.9049,276.2426,0,U,56726,999,16611,.46816E-4,.178E-5,0
IRIDIUM 177,2023-068T,2026-07-12T17:49:58.184256,14.80028134,.0002141,86.1984,316.6578,93.9967,266.1499,0,U,56727,999,17014,.74055E-4,.587E-5,0
IRIDIUM 174,2023-068U,2026-07-12T10:29:01.451904,14.72256065,.00020265,86.6116,343.1337,85.5654,274.5795,0,U,56728,999,16973,.66207542E-4,.442E-5,0
IRIDIUM 178,2023-068V,2026-07-12T12:42:01.957248,14.80025335,.00023227,86.6533,14.7675,90.2389,269.9099,0,U,56729,999,17011,.2249867E-4,.196E-5,0
IRIDIUM 179,2023-068W,2026-07-12T14:11:41.832096,14.80034097,.0002293,86.6765,23.7965,92.3365,267.8119,0,U,56730,999,17012,.58205E-4,.466E-5,0
