IRIDIUM 156             
1 43576U 18061H   26193.65271372  .00000057  00000+0  13250-4 0  9991
2 43576  86.3937  46.0769 0002103  92.0847 268.0590 14.34217491417021
IRIDIUM 164             
1 43577U 18061J   26193.70345657  .00000149  00000+0  46177-4 0  9992
2 43577  86.3939  46.0967 0002309  89.1970 270.9490 14.34217636417073
IRIDIUM 159             
1 43578U 18061K   26193.67174086  .00000010  00000+0 -34902-5 0  9997
2 43578  86.3935  46.0462 0002038  85.0768 275.0660 14.34217116417033
IRIDIUM 180             
1 43922U 19002A   26193.81077610  .00000088  00000+0  24538-4 0  9994
2 43922  86.3991 342.8855 0002240  90.8767 269.2685 14.34217743392668
IRIDIUM 176             
1 43923U 19002B   26193.85088605  .00000426  00000+0  63660-4 0  9990
2 43923  86.6108 342.8085 0002339  89.7498 270.3987 14.72247366403021
IRIDIUM 168             
1 43924U 19002C   26191.36253025  .00000045  00000+0  89730-5 0  9999
2 43924  86.3988 343.9865 0002243  90.7210 269.4243 14.34217872392298
IRIDIUM 173             
1 43925U 19002D   26193.79174639 -.00000089  00000+0 -38996-4 0  9999
2 43925  86.3988 342.8597 0002052  91.7107 268.4324 14.34216822392623
IRIDIUM 169             
1 43926U 19002E   26193.57051013  .00000023  00000+0  91760-6 0  9992
2 43926  86.4219  14.5777 0001802 100.9496 259.1905 14.38613001393875
IRIDIUM 172             
1 43927U 19002F   26193.85517333  .00000074  00000+0  19415-4 0  9997
2 43927  86.3985 342.8407 0002170  90.3563 269.7881 14.34217736392643
IRIDIUM 175             
1 43928U 19002G   26193.78360110  .00000180  00000+0  47062-4 0  9996
2 43928  86.4512 279.8222 0005203 120.0557 240.1161 14.43626490402679
IRIDIUM 171             
1 43929U 19002H   26193.83614523  .00000053  00000+0  11922-4 0  9998
2 43929  86.3996 343.1576 0002212  95.2398 264.9050 14.34217597392634
IRIDIUM 170             
1 43930U 19002J   26193.85705696  .00000429  00000+0  64066-4 0  9998
2 43930  86.6108 342.8082 0002291  86.1226 274.0253 14.72247932403030
IRIDIUM 167             
1 43931U 19002K   26193.48095994  .00000059  00000+0  14069-4 0  9998
2 43931  86.3988 343.0196 0002250  99.1004 261.0446 14.34217698392587
IRIDIUM 181             
1 56726U 23068S   26193.68899867  .00000178  00000+0  46816-4 0  9991
2 56726  86.4476  46.1263 0002410  83.9049 276.2426 14.43311370166116
IRIDIUM 177             
1 56727U 23068T   26193.74303454  .00000587  00000+0  74055-4 0  9991
2 56727  86.1984 316.6578 0002141  93.9967 266.1499 14.80028134170143
IRIDIUM 174             
1 56728U 23068U   26193.43682236  .00000442  00000+0  66208-4 0  9997
2 56728  86.6116 343.1337 0002026  85.5654 274.5795 14.72256065169738
IRIDIUM 178             
1 56729U 23068V   26193.52918932  .00000196  00000+0  22499-4 0  9993
2 56729  86.6533  14.7675 0002322  90.2389 269.9099 14.80025335170117
IRIDIUM 179             
1 56730U 23068W   26193.59145639  .00000466  00000+0  58205-4 0  9992
2 56730  86.6765  23.7965 0002293  92.3365 267.8119 14.80034097170128
